ONEWEB-0674             
1 55833U 23029AP  25105.77921582 -.00000184  00000+0 -53051-3 0  9995
2 55833  87.9092  14.7367 0002320  71.8638 288.2744 13.14501873103269
ONEWEB-0675             
1 55834U 23029AQ  25106.28287517  .00000131  00000+0  29534-3 0  9995
2 55834  87.9262  29.8447 0001636  85.6117 274.5203 13.19724039103320
ONEWEB-0720             
1 55835U 23029AR  25105.82006674  .00000020  00000+0  18222-4 0  9998
2 55835  87.9260  29.9337 0001835  65.1533 294.9790 13.19723989102479
ONEWEB-0537             
1 56046U 23043A   25106.09167583  .00000121  00000+0  28209-3 0  9993
2 56046  87.9029 313.8975 0001666  94.9174 265.2147 13.16595128103672
ONEWEB-0538             
1 56047U 23043B   25106.31334019  .00000042  00000+0  77102-4 0  9998
2 56047  87.9029 313.8755 0001442  88.3001 271.8295 13.16594866103717
ONEWEB-0546             
1 56048U 23043C   25106.30066429 -.00000006  00000+0 -50430-4 0  9992
2 56048  87.9032 313.8469 0001973 109.3490 250.7854 13.16594910103705
ONEWEB-0547             
1 56049U 23043D   25105.86754241  .00000056  00000+0  10467-3 0  9997
2 56049  87.9273 329.1987 0001548  81.3365 278.7944 13.21826237101777
ONEWEB-0548             
1 56050U 23043E   25105.87001992  .00000121  00000+0  28384-3 0  9998
2 56050  87.9032 313.9736 0002213  81.6286 278.5096 13.16595651102730
